$$SOE
2460154.500000000, A.D. 2023-Jul-29 00:00:00.0000, 5.819500981091244E+09, -2.205844737537621E+09, 5.711711623969972E+07,
2460161.500000000, A.D. 2023-Aug-05 00:00:00.0000, 5.820603057652995E+09, -2.203179240899244E+09, 5.715313652270317E+07,
2460168.500000000, A.D. 2023-Aug-12 00:00:00.0000, 5.821703873533928E+09, -2.200513326907821E+09, 5.718914769327581E+07,
2460175.500000000, A.D. 2023-Aug-19 00:00:00.0000, 5.822803426571786E+09, -2.197846998573555E+09, 5.722514986413181E+07,
2460182.500000000, A.D. 2023-Aug-26 00:00:00.0000, 5.823901714910172E+09, -2.195180259305359E+09, 5.726114312387288E+07,
2460189.500000000, A.D. 2023-Sep-02 00:00:00.0000, 5.824998736976295E+09, -2.192513112892181E+09, 5.729712753840518E+07,
2460196.500000000, A.D. 2023-Sep-09 00:00:00.0000, 5.826094491472339E+09, -2.189845563596845E+09, 5.733310314099729E+07,
2460203.500000000, A.D. 2023-Sep-16 00:00:00.0000, 5.827188977548882E+09, -2.187177616420448E+09, 5.736906989084935E+07,
2460210.500000000, A.D. 2023-Sep-23 00:00:00.0000, 5.828282195576787E+09, -2.184509277250496E+09, 5.740502758547497E+07,
2460217.500000000, A.D. 2023-Sep-30 00:00:00.0000, 5.829374148177970E+09, -2.181840551702095E+09, 5.744097585546196E+07,
2460224.500000000, A.D. 2023-Oct-07 00:00:00.0000, 5.830464839161335E+09, -2.179171443194985E+09, 5.747691441325724E+07,
2460231.500000000, A.D. 2023-Oct-14 00:00:00.0000, 5.831554271403757E+09, -2.176501953579609E+09, 5.751284319001174E+07,
2460238.500000000, A.D. 2023-Oct-21 00:00:00.0000, 5.832642446904724E+09, -2.173832084709495E+09, 5.754876219550908E+07,
2460245.500000000, A.D. 2023-Oct-28 00:00:00.0000, 5.833729367590280E+09, -2.171161838699813E+09, 5.758467141675770E+07,
2460252.500000000, A.D. 2023-Nov-04 00:00:00.0000, 5.834815035616233E+09, -2.168491217642525E+09, 5.762057080720139E+07,
2460259.500000000, A.D. 2023-Nov-11 00:00:00.0000, 5.835899453348206E+09, -2.165820223377971E+09, 5.765646030149376E+07,
2460266.500000000, A.D. 2023-Nov-18 00:00:00.0000, 5.836982623238010E+09, -2.163148857387235E+09, 5.769233983071017E+07,
2460273.500000000, A.D. 2023-Nov-25 00:00:00.0000, 5.838064547669186E+09, -2.160477120782696E+09, 5.772820933337998E+07,
2460280.500000000, A.D. 2023-Dec-02 00:00:00.0000, 5.839145228799890E+09, -2.157805014407988E+09, 5.776406875901902E+07,
2460287.500000000, A.D. 2023-Dec-09 00:00:00.0000, 5.840224668480947E+09, -2.155132539106264E+09, 5.779991805232418E+07,
2460294.500000000, A.D. 2023-Dec-16 00:00:00.0000, 5.841302868536621E+09, -2.152459696144207E+09, 5.783575709271753E+07,
2460301.500000000, A.D. 2023-Dec-23 00:00:00.0000, 5.842379831756567E+09, -2.149786487104339E+09, 5.787158561341858E+07,
2460308.500000000, A.D. 2023-Dec-30 00:00:00.0000, 5.843455562258708E+09, -2.147112912196373E+09, 5.790740330860484E+07,
2460315.500000000, A.D. 2024-Jan-06 00:00:00.0000, 5.844530063450643E+09, -2.144438969348323E+09, 5.794321009814072E+07,
2460322.500000000, A.D. 2024-Jan-13 00:00:00.0000, 5.845603336762270E+09, -2.141764655884291E+09, 5.797900611097264E+07,
2460329.500000000, A.D. 2024-Jan-20 00:00:00.0000, 5.846675382373219E+09, -2.139089969704322E+09, 5.801479152679110E+07,
2460336.500000000, A.D. 2024-Jan-27 00:00:00.0000, 5.847746199906354E+09, -2.136414909314164E+09, 5.805056651508820E+07,
2460343.500000000, A.D. 2024-Feb-03 00:00:00.0000, 5.848815788658957E+09, -2.133739473653522E+09, 5.808633123314762E+07,
2460350.500000000, A.D. 2024-Feb-10 00:00:00.0000, 5.849884147648962E+09, -2.131063662013939E+09, 5.812208583351994E+07,
2460357.500000000, A.D. 2024-Feb-17 00:00:00.0000, 5.850951275614957E+09, -2.128387474038377E+09, 5.815783046873033E+07,
2460364.500000000, A.D. 2024-Feb-24 00:00:00.0000, 5.852017171005858E+09, -2.125710909787701E+09, 5.819356529098940E+07,
2460371.500000000, A.D. 2024-Mar-02 00:00:00.0000, 5.853081831989639E+09, -2.123033969906599E+09, 5.822929044144797E+07,
2460378.500000000, A.D. 2024-Mar-09 00:00:00.0000, 5.854145256619900E+09, -2.120356655951777E+09, 5.826500601104355E+07,
2460385.500000000, A.D. 2024-Mar-16 00:00:00.0000, 5.855207443555575E+09, -2.117678970685177E+09, 5.830071195275331E+07,
2460392.500000000, A.D. 2024-Mar-23 00:00:00.0000, 5.856268393230253E+09, -2.115000917223174E+09, 5.833640804534185E+07,
2460399.500000000, A.D. 2024-Mar-30 00:00:00.0000, 5.857328107229878E+09, -2.112322497068532E+09, 5.837209411196613E+07,
2460406.500000000, A.D. 2024-Apr-06 00:00:00.0000, 5.858386586134952E+09, -2.109643710392753E+09, 5.840777019493341E+07,
2460413.500000000, A.D. 2024-Apr-13 00:00:00.0000, 5.859443829378306E+09, -2.106964557732366E+09, 5.844343642925131E+07,
2460420.500000000, A.D. 2024-Apr-20 00:00:00.0000, 5.860499836166340E+09, -2.104285040422530E+09, 5.847909292105830E+07,
2460427.500000000, A.D. 2024-Apr-27 00:00:00.0000, 5.861554605946673E+09, -2.101605160329313E+09, 5.851473972423792E+07,
2460434.500000000, A.D. 2024-May-04 00:00:00.0000, 5.862608138510139E+09, -2.098924919583952E+09, 5.855037684973502E+07,
2460441.500000000, A.D. 2024-May-11 00:00:00.0000, 5.863660433965478E+09, -2.096244320420721E+09, 5.858600427749610E+07,
2460448.500000000, A.D. 2024-May-18 00:00:00.0000, 5.864711492668680E+09, -2.093563365096506E+09, 5.862162196541440E+07,
2460455.500000000, A.D. 2024-May-25 00:00:00.0000, 5.865761315131735E+09, -2.090882055898904E+09, 5.865722985261703E+07,
2460462.500000000, A.D. 2024-Jun-01 00:00:00.0000, 5.866809901970606E+09, -2.088200395299938E+09, 5.869282784712517E+07,
2460469.500000000, A.D. 2024-Jun-08 00:00:00.0000, 5.867857254138803E+09, -2.085518386278027E+09, 5.872841577365899E+07,
2460476.500000000, A.D. 2024-Jun-15 00:00:00.0000, 5.868903373846082E+09, -2.082836032262866E+09, 5.876399328975785E+07,
2460483.500000000, A.D. 2024-Jun-22 00:00:00.0000, 5.869948265157025E+09, -2.080153335527822E+09, 5.879955995871806E+07,
2460490.500000000, A.D. 2024-Jun-29 00:00:00.0000, 5.870991932147914E+09, -2.077470295850463E+09, 5.883511552540827E+07,
2460497.500000000, A.D. 2024-Jul-06 00:00:00.0000, 5.872034377266861E+09, -2.074786911912185E+09, 5.887065995063126E+07,
2460504.500000000, A.D. 2024-Jul-13 00:00:00.0000, 5.873075601846467E+09, -2.072103182612751E+09, 5.890619325619400E+07,
2460511.500000000, A.D. 2024-Jul-20 00:00:00.0000, 5.874115606783363E+09, -2.069419107150988E+09, 5.894171545677793E+07,
2460518.500000000, A.D. 2024-Jul-27 00:00:00.0000, 5.875154392728601E+09, -2.066734684831066E+09, 5.897722656037903E+07,
2460525.500000000, A.D. 2024-Aug-03 00:00:00.0000, 5.876191960061878E+09, -2.064049914969198E+09, 5.901272658157897E+07,
2460532.500000000, A.D. 2024-Aug-10 00:00:00.0000, 5.877228308815327E+09, -2.061364796905045E+09, 5.904821555193043E+07,
2460539.500000000, A.D. 2024-Aug-17 00:00:00.0000, 5.878263438594222E+09, -2.058679330095785E+09, 5.908369352469671E+07,
2460546.500000000, A.D. 2024-Aug-24 00:00:00.0000, 5.879297348522423E+09, -2.055993514314774E+09, 5.911916056934249E+07,
2460553.500000000, A.D. 2024-Aug-31 00:00:00.0000, 5.880330037328200E+09, -2.053307350015873E+09, 5.915461673987854E+07,
2460560.500000000, A.D. 2024-Sep-07 00:00:00.0000, 5.881361503935919E+09, -2.050620838736755E+09, 5.919006199361217E+07,
2460567.500000000, A.D. 2024-Sep-14 00:00:00.0000, 5.882391748648839E+09, -2.047933982544983E+09, 5.922549613361502E+07,
2460574.500000000, A.D. 2024-Sep-21 00:00:00.0000, 5.883420772894185E+09, -2.045246782114068E+09, 5.926091899449801E+07,
2460581.500000000, A.D. 2024-Sep-28 00:00:00.0000, 5.884448577043030E+09, -2.042559236656960E+09, 5.929633065225816E+07,
2460588.500000000, A.D. 2024-Oct-05 00:00:00.0000, 5.885475159974642E+09, -2.039871345715189E+09, 5.933173132159984E+07,
2460595.500000000, A.D. 2024-Oct-12 00:00:00.0000, 5.886500520024718E+09, -2.037183109823396E+09, 5.936712121724796E+07,
2460602.500000000, A.D. 2024-Oct-19 00:00:00.0000, 5.887524655566557E+09, -2.034494530319943E+09, 5.940250051767063E+07,
2460609.500000000, A.D. 2024-Oct-26 00:00:00.0000, 5.888547565192833E+09, -2.031805609104816E+09, 5.943786936866510E+07,
2460616.500000000, A.D. 2024-Nov-02 00:00:00.0000, 5.889569247755424E+09, -2.029116348492945E+09, 5.947322789108932E+07,
2460623.500000000, A.D. 2024-Nov-09 00:00:00.0000, 5.890589702360011E+09, -2.026426751141979E+09, 5.950857618559623E+07,
2460630.500000000, A.D. 2024-Nov-16 00:00:00.0000, 5.891608928341504E+09, -2.023736820053950E+09, 5.954391433206487E+07,
2460637.500000000, A.D. 2024-Nov-23 00:00:00.0000, 5.892626925267402E+09, -2.021046558700458E+09, 5.957924237541497E+07,
2460644.500000000, A.D. 2024-Nov-30 00:00:00.0000, 5.893643693177468E+09, -2.018355971313734E+09, 5.961456027529013E+07,
2460651.500000000, A.D. 2024-Dec-07 00:00:00.0000, 5.894659233479324E+09, -2.015665062922771E+09, 5.964986781561780E+07,
2460658.500000000, A.D. 2024-Dec-14 00:00:00.0000, 5.895673549811380E+09, -2.012973837910349E+09, 5.968516463735390E+07,
2460665.500000000, A.D. 2024-Dec-21 00:00:00.0000, 5.896686646554652E+09, -2.010282298331607E+09, 5.972045050582635E+07,
2460672.500000000, A.D. 2024-Dec-28 00:00:00.0000, 5.897698526965949E+09, -2.007590444961380E+09, 5.975572538943386E+07,
2460679.500000000, A.D. 2025-Jan-04 00:00:00.0000, 5.898709193529758E+09, -2.004898278694082E+09, 5.979098930587876E+07,
2460686.500000000, A.D. 2025-Jan-11 00:00:00.0000, 5.899718648707644E+09, -2.002205800636235E+09, 5.982624223884678E+07,
2460693.500000000, A.D. 2025-Jan-18 00:00:00.0000, 5.900726895168313E+09, -1.999513011810436E+09, 5.986148413441300E+07,
2460700.500000000, A.D. 2025-Jan-25 00:00:00.0000, 5.901733935742027E+09, -1.996819912945266E+09, 5.989671491631711E+07,
2460707.500000000, A.D. 2025-Feb-01 00:00:00.0000, 5.902739773288951E+09, -1.994126504381317E+09, 5.993193450052989E+07,
2460714.500000000, A.D. 2025-Feb-08 00:00:00.0000, 5.903744410539975E+09, -1.991432786073615E+09, 5.996714280560207E+07,
2460721.500000000, A.D. 2025-Feb-15 00:00:00.0000, 5.904747849938933E+09, -1.988738757710515E+09, 6.000233975472832E+07,
$$EOE